[{"OBJECT_NAME":"COSMOS 2581","OBJECT_ID":"2025-026A","EPOCH":"2026-03-09T19:42:28.866816","MEAN_MOTION":14.94736104,"ECCENTRICITY":0.0010574,"INCLINATION":81.9986,"RA_OF_ASC_NODE":175.8565,"ARG_OF_PERICENTER":32.7244,"MEAN_ANOMALY":327.4629,"EPHEMERIS_TYPE":0,"CLASSIFICATION_TYPE":"U","NORAD_CAT_ID":62902,"ELEMENT_SET_NO":999,"REV_AT_EPOCH":5937,"BSTAR":0.00021137,"MEAN_MOTION_DOT":2.32e-5,"MEAN_MOTION_DDOT":0},{"OBJECT_NAME":"PEGASUS DEB","OBJECT_ID":"1994-029AGJ","EPOCH":"2026-03-09T15:38:30.684192","MEAN_MOTION":14.32744369,"ECCENTRICITY":0.03222105,"INCLINATION":81.8776,"RA_OF_ASC_NODE":39.0531,"ARG_OF_PERICENTER":160.6697,"MEAN_ANOMALY":200.7053,"EPHEMERIS_TYPE":0,"CLASSIFICATION_TYPE":"U","NORAD_CAT_ID":40242,"ELEMENT_SET_NO":999,"REV_AT_EPOCH":58831,"BSTAR":0.00090056076,"MEAN_MOTION_DOT":4.406e-5,"MEAN_MOTION_DDOT":0}]
